[{"OBJECT_NAME":"STARLINK-33711","OBJECT_ID":"2025-065F","EPOCH":"2026-03-09T19:28:38.802144","MEAN_MOTION":15.27598715,"ECCENTRICITY":0.00022486,"INCLINATION":43.0051,"RA_OF_ASC_NODE":105.9596,"ARG_OF_PERICENTER":269.6404,"MEAN_ANOMALY":90.419,"EPHEMERIS_TYPE":0,"CLASSIFICATION_TYPE":"U","NORAD_CAT_ID":63404,"ELEMENT_SET_NO":999,"REV_AT_EPOCH":5286,"BSTAR":0.00076505092,"MEAN_MOTION_DOT":0.00020862,"MEAN_MOTION_DDOT":0},{"OBJECT_NAME":"CZ-6A DEB","OBJECT_ID":"2022-151DV","EPOCH":"2026-03-09T19:16:59.107296","MEAN_MOTION":15.22406517,"ECCENTRICITY":0.00445255,"INCLINATION":98.4509,"RA_OF_ASC_NODE":160.1888,"ARG_OF_PERICENTER":355.6495,"MEAN_ANOMALY":4.4345,"EPHEMERIS_TYPE":0,"CLASSIFICATION_TYPE":"U","NORAD_CAT_ID":54397,"ELEMENT_SET_NO":999,"REV_AT_EPOCH":17880,"BSTAR":0.0035436228,"MEAN_MOTION_DOT":0.00084931,"MEAN_MOTION_DDOT":0}]
